GLOBAL-31               
1 63027U 25033B   26198.27121182  .00005766  00000+0  15972-3 0  9991
2 63027  58.9965 194.5905 0012193  57.6964 302.5291 15.38335659 78957
GLOBAL-32               
1 64231U 25118B   26198.20877647  .00007573  00000+0  20001-3 0  9997
2 64231  58.9942  11.0351 0016698  62.3046 297.9723 15.39321114 62868
GLOBAL-33               
1 66554U 25267A   26198.19136241  .00005940  00000+0  16612-3 0  9997
2 66554  42.0178 241.6494 0008020 108.4111 251.7601 15.37252173 36665
GLOBAL-34               
1 68098U 26043A   26197.86777837  .00005861  00000+0  18691-3 0  9991
2 68098  42.0216  49.0942 0001960 157.8979 202.1943 15.33126305 20381
