{"fetched_at":"2026-07-17T17:38:15.876Z","source":"https://celestrak.org/NORAD/elements/gp.php?NAME=GLOBAL&FORMAT=JSON","constellation":"blacksky-gen3","records":[{"OBJECT_NAME":"GLOBAL-31","OBJECT_ID":"2025-033B","EPOCH":"2026-07-17T06:30:32.701248","CLASSIFICATION_TYPE":"U","MEAN_MOTION":15.38335659,"ECCENTRICITY":0.00121938,"INCLINATION":58.9965,"RA_OF_ASC_NODE":194.5905,"ARG_OF_PERICENTER":57.6964,"MEAN_ANOMALY":302.5291,"EPHEMERIS_TYPE":0,"NORAD_CAT_ID":63027,"ELEMENT_SET_NO":999,"REV_AT_EPOCH":7895,"BSTAR":0.00015971993,"MEAN_MOTION_DOT":0.00005766,"MEAN_MOTION_DDOT":0},{"OBJECT_NAME":"GLOBAL-32","OBJECT_ID":"2025-118B","EPOCH":"2026-07-17T05:00:38.287008","CLASSIFICATION_TYPE":"U","MEAN_MOTION":15.39321114,"ECCENTRICITY":0.00166982,"INCLINATION":58.9942,"RA_OF_ASC_NODE":11.0351,"ARG_OF_PERICENTER":62.3046,"MEAN_ANOMALY":297.9723,"EPHEMERIS_TYPE":0,"NORAD_CAT_ID":64231,"ELEMENT_SET_NO":999,"REV_AT_EPOCH":6286,"BSTAR":0.0002000116,"MEAN_MOTION_DOT":0.00007573,"MEAN_MOTION_DDOT":0},{"OBJECT_NAME":"GLOBAL-33","OBJECT_ID":"2025-267A","EPOCH":"2026-07-17T04:35:33.712224","CLASSIFICATION_TYPE":"U","MEAN_MOTION":15.37252173,"ECCENTRICITY":0.00080205,"INCLINATION":42.0178,"RA_OF_ASC_NODE":241.6494,"ARG_OF_PERICENTER":108.4111,"MEAN_ANOMALY":251.7601,"EPHEMERIS_TYPE":0,"NORAD_CAT_ID":66554,"ELEMENT_SET_NO":999,"REV_AT_EPOCH":3666,"BSTAR":0.0001661217,"MEAN_MOTION_DOT":0.0000594,"MEAN_MOTION_DDOT":0},{"OBJECT_NAME":"GLOBAL-34","OBJECT_ID":"2026-043A","EPOCH":"2026-07-16T20:49:36.051168","CLASSIFICATION_TYPE":"U","MEAN_MOTION":15.33126305,"ECCENTRICITY":0.00019607,"INCLINATION":42.0216,"RA_OF_ASC_NODE":49.0942,"ARG_OF_PERICENTER":157.8979,"MEAN_ANOMALY":202.1943,"EPHEMERIS_TYPE":0,"NORAD_CAT_ID":68098,"ELEMENT_SET_NO":999,"REV_AT_EPOCH":2038,"BSTAR":0.00018690738,"MEAN_MOTION_DOT":0.00005861,"MEAN_MOTION_DDOT":0}]}
